QIANFAN-107             
1 66049U 25233S   26152.12744648  .00000170  00000+0  24521-3 0  9996
2 66049  89.0024  44.8092 0002032  70.9107 289.2264 13.51007867 31025
QIANFAN-108             
1 66050U 25233T   26152.13158157  .00000171  00000+0  24567-3 0  9994
2 66050  89.0017  44.7977 0002014  83.4401 276.6979 13.51008990 31027
2025-234B               
1 66054U 25234B   26152.14466909  .00006985  00000+0  31871-3 0  9992
2 66054  97.4768 221.5008 0012239 144.3651 215.8404 15.20866589 34206
2025-234C               
1 66055U 25234C   26152.13272869  .00006143  00000+0  25600-3 0  9991
2 66055  97.4266 220.6710 0014037 208.9461 151.0999 15.23990113 34242
2025-234D               
1 66056U 25234D   26152.15115901  .00016085  00000+0  72019-3 0  9999
2 66056  97.4248 220.2877 0003135 141.4977 218.6483 15.21342247 34215
STARLINK-35552          
1 66058U 25235A   26151.59443477  .00020918  00000+0  62827-3 0  9997
2 66058  53.1582 216.6642 0001010  86.9724 273.1394 15.34411099 35662
STARLINK-35560          
1 66059U 25235B   26151.45772486  .00038174  00000+0  12935-2 0  9995
2 66059  53.1593 220.8225 0000322  87.4211 272.6827 15.30222014 35591
STARLINK-35558          
1 66060U 25235C   26152.20257433  .00027500  00000+0  93689-3 0  9998
2 66060  53.1558 217.6485 0002340 100.6959 259.4305 15.30209067 35705
STARLINK-35566          
1 66061U 25235D   26151.56935894  .00018606  00000+0  63880-3 0  9998
2 66061  53.1598 220.0944 0001217  82.0500 278.0639 15.30196442 35614
STARLINK-35421          
1 66062U 25235E   26151.60207452  .00011802  00000+0  40996-3 0  9990
2 66062  53.1576 220.3007 0000974  89.3078 270.8034 15.30201117 35618
STARLINK-35562          
1 66063U 25235F   26152.21101993  .00016136  00000+0  55575-3 0  9996
2 66063  53.1567 217.6967 0001248  90.6898 269.4246 15.30200056 35703
STARLINK-35542          
1 66064U 25235G   26151.60418367  .00023339  00000+0  79740-3 0  9998
2 66064  53.1577 220.3153 0000916  83.8383 276.2722 15.30209604 35610
STARLINK-35375          
1 66065U 25235H   26152.20890690  .00026734  00000+0  91167-3 0  9998
2 66065  53.1571 217.6882 0000725  54.8196 305.2873 15.30193552 35705
STARLINK-35179          
1 66066U 25235J   26151.60839263  .00040565  00000+0  13711-2 0  9997
2 66066  53.1577 220.3400 0001188  83.1655 276.9481 15.30274329 35619
STARLINK-35401          
1 66067U 25235K   26152.18358241  .00026057  00000+0  88894-3 0  9999
2 66067  53.1590 217.5295 0001442  86.7038 273.4128 15.30194709 35671
STARLINK-35422          
1 66068U 25235L   26152.16986245  .00023706  00000+0  81002-3 0  9991
2 66068  53.1594 217.4436 0001374  84.3438 275.7720 15.30197766 35673
STARLINK-35279          
1 66069U 25235M   26152.16352538  .00022888  00000+0  78253-3 0  9998
2 66069  53.1590 217.4019 0001146  89.6947 270.4185 15.30199902 35702
STARLINK-35295          
1 66070U 25235N   26152.20468739  .00022497  00000+0  76969-3 0  9994
2 66070  53.1572 217.6574 0000889  75.8257 284.2842 15.30186459 35702
STARLINK-35323          
1 66071U 25235P   26152.15086880  .00031253  00000+0  10632-2 0  9996
2 66071  53.1578 217.3222 0000991 104.0065 256.1046 15.30191326 35705
STARLINK-35299          
1 66072U 25235Q   26151.60102049  .00021153  00000+0  72404-3 0  9996
2 66072  53.1581 220.2942 0001174  74.3983 285.7147 15.30209940 35616
STARLINK-35274          
1 66073U 25235R   26152.00002315  .00044879  00000+0  15195-2 0  9990
2 66073  53.1563 218.6213 0001155  93.3026 212.9319 15.30173507  5908
STARLINK-35321          
1 66074U 25235S   26151.61157257  .00020507  00000+0  70261-3 0  9991
2 66074  53.1577 220.3575 0001212  80.8633 279.2505 15.30199673 35610
STARLINK-35131          
1 66075U 25235T   26152.18041385  .00022054  00000+0  75448-3 0  9990
2 66075  53.1597 217.5071 0001584  92.7468 267.3714 15.30202043 35708
STARLINK-34801          
1 66076U 25235U   26152.19307971  .00018100  00000+0  62181-3 0  9995
2 66076  53.1575 217.5823 0000967  96.0138 264.0973 15.30197255 35704
STARLINK-35129          
1 66077U 25235V   26151.46828328  .00025288  00000+0  86301-3 0  9994
2 66077  53.1583 220.8848 0000962  79.2256 280.8853 15.30200068 35594
STARLINK-35116          
1 66078U 25235W   26151.57886096  .00020850  00000+0  71391-3 0  9996
2 66078  53.1603 220.1498 0001228  79.3691 280.7448 15.30208862 35614
STARLINK-35402          
1 66079U 25235X   26152.16036570  .00029676  00000+0  10103-2 0  9995
2 66079  53.1590 217.3796 0001308  95.9799 264.1351 15.30194255 35700
STARLINK-35325          
1 66080U 25235Y   26152.04239214  .00014530  00000+0  50170-3 0  9996
2 66080  53.1602 218.0625 0001496 132.9297 227.1830 15.30203113 35680
STARLINK-35403          
1 66081U 25235Z   26152.17670837  .00036893  00000+0  11947-2 0  9995
2 66081  53.1580 216.7677 0001849 109.7086 250.4115 15.31701029 35717
STARLINK-35011          
1 66082U 25235AA  26152.19071135  .00021533  00000+0  70336-3 0  9997
2 66082  53.1570 216.8543 0002402 110.1525 249.9735 15.31712718 35718
