OBJECT_NAME,OBJECT_ID,EPOCH,MEAN_MOTION,ECCENTRICITY,INCLINATION,RA_OF_ASC_NODE,ARG_OF_PERICENTER,MEAN_ANOMALY,EPHEMERIS_TYPE,CLASSIFICATION_TYPE,NORAD_CAT_ID,ELEMENT_SET_NO,REV_AT_EPOCH,BSTAR,MEAN_MOTION_DOT,MEAN_MOTION_DDOT
QIANFAN-107,2025-233S,2026-06-01T03:03:31.375872,13.51007867,.00020324,89.0024,44.8092,70.9107,289.2264,0,U,66049,999,3102,.24521357E-3,.17E-5,0
QIANFAN-108,2025-233T,2026-06-01T03:09:28.647648,13.51008990,.00020146,89.0017,44.7977,83.4401,276.6979,0,U,66050,999,3102,.24566802E-3,.171E-5,0
2025-234B,2025-234B,2026-06-01T03:28:19.409376,15.20866589,.00122395,97.4768,221.5008,144.3651,215.8404,0,U,66054,999,3420,.31871231E-3,.6985E-4,0
2025-234C,2025-234C,2026-06-01T03:11:07.758816,15.23990113,.00140377,97.4266,220.6710,208.9461,151.0999,0,U,66055,999,3424,.25600369E-3,.6143E-4,0
2025-234D,2025-234D,2026-06-01T03:37:40.138464,15.21342247,.00031357,97.4248,220.2877,141.4977,218.6483,0,U,66056,999,3421,.72019438E-3,.16085E-3,0
STARLINK-35552,2025-235A,2026-05-31T14:15:59.164128,15.34411099,.00010105,53.1582,216.6642,86.9724,273.1394,0,U,66058,999,3566,.62827408E-3,.20918E-3,0
STARLINK-35560,2025-235B,2026-05-31T10:59:07.427904,15.30222014,.00003221,53.1593,220.8225,87.4211,272.6827,0,U,66059,999,3559,.12935065E-2,.38174E-3,0
STARLINK-35558,2025-235C,2026-06-01T04:51:42.422112,15.30209067,.00023405,53.1558,217.6485,100.6959,259.4305,0,U,66060,999,3570,.93689137E-3,.275E-3,0
STARLINK-35566,2025-235D,2026-05-31T13:39:52.612416,15.30196442,.00012178,53.1598,220.0944,82.0500,278.0639,0,U,66061,999,3561,.63879985E-3,.18606E-3,0
STARLINK-35421,2025-235E,2026-05-31T14:26:59.238528,15.30201117,.00009747,53.1576,220.3007,89.3078,270.8034,0,U,66062,999,3561,.40995967E-3,.11802E-3,0
STARLINK-35562,2025-235F,2026-06-01T05:03:52.121952,15.30200056,.0001248,53.1567,217.6967,90.6898,269.4246,0,U,66063,999,3570,.55574533E-3,.16136E-3,0
STARLINK-35542,2025-235G,2026-05-31T14:30:01.469088,15.30209604,.00009169,53.1577,220.3153,83.8383,276.2722,0,U,66064,999,3561,.79739589E-3,.23339E-3,0
STARLINK-35375,2025-235H,2026-06-01T05:00:49.556160,15.30193552,.00007256,53.1571,217.6882,54.8196,305.2873,0,U,66065,999,3570,.9116745E-3,.26734E-3,0
STARLINK-35179,2025-235J,2026-05-31T14:36:05.123232,15.30274329,.00011881,53.1577,220.3400,83.1655,276.9481,0,U,66066,999,3561,.13711208E-2,.40565E-3,0
STARLINK-35401,2025-235K,2026-06-01T04:24:21.520224,15.30194709,.00014426,53.1590,217.5295,86.7038,273.4128,0,U,66067,999,3567,.88893502E-3,.26057E-3,0
STARLINK-35422,2025-235L,2026-06-01T04:04:36.115680,15.30197766,.00013742,53.1594,217.4436,84.3438,275.7720,0,U,66068,999,3567,.81001872E-3,.23706E-3,0
STARLINK-35279,2025-235M,2026-06-01T03:55:28.592832,15.30199902,.0001146,53.1590,217.4019,89.6947,270.4185,0,U,66069,999,3570,.78252549E-3,.22888E-3,0
STARLINK-35295,2025-235N,2026-06-01T04:54:44.990496,15.30186459,.00008898,53.1572,217.6574,75.8257,284.2842,0,U,66070,999,3570,.76969432E-3,.22497E-3,0
STARLINK-35323,2025-235P,2026-06-01T03:37:15.064320,15.30191326,.00009917,53.1578,217.3222,104.0065,256.1046,0,U,66071,999,3570,.10631851E-2,.31253E-3,0
STARLINK-35299,2025-235Q,2026-05-31T14:25:28.170336,15.30209940,.00011747,53.1581,220.2942,74.3983,285.7147,0,U,66072,999,3561,.72404394E-3,.21153E-3,0
STARLINK-35274,2025-235R,2026-06-01T00:00:02.000160,15.30173507,.00011557,53.1563,218.6213,93.3026,212.9319,0,U,66073,999,590,.15194976E-2,.44879E-3,0
STARLINK-35321,2025-235S,2026-05-31T14:40:39.870048,15.30199673,.00012121,53.1577,220.3575,80.8633,279.2505,0,U,66074,999,3561,.70260895E-3,.20507E-3,0
STARLINK-35131,2025-235T,2026-06-01T04:19:47.756640,15.30202043,.0001584,53.1597,217.5071,92.7468,267.3714,0,U,66075,999,3570,.75448184E-3,.22054E-3,0
STARLINK-34801,2025-235U,2026-06-01T04:38:02.086944,15.30197255,.00009679,53.1575,217.5823,96.0138,264.0973,0,U,66076,999,3570,.62181141E-3,.181E-3,0
STARLINK-35129,2025-235V,2026-05-31T11:14:19.675392,15.30200068,.00009626,53.1583,220.8848,79.2256,280.8853,0,U,66077,999,3559,.86300768E-3,.25288E-3,0
STARLINK-35116,2025-235W,2026-05-31T13:53:33.586944,15.30208862,.00012286,53.1603,220.1498,79.3691,280.7448,0,U,66078,999,3561,.71390662E-3,.2085E-3,0
STARLINK-35402,2025-235X,2026-06-01T03:50:55.596480,15.30194255,.00013082,53.1590,217.3796,95.9799,264.1351,0,U,66079,999,3570,.10102557E-2,.29676E-3,0
STARLINK-35325,2025-235Y,2026-06-01T01:01:02.680896,15.30203113,.00014968,53.1602,218.0625,132.9297,227.1830,0,U,66080,999,3568,.50169671E-3,.1453E-3,0
STARLINK-35403,2025-235Z,2026-06-01T04:14:27.603168,15.31701029,.00018493,53.1580,216.7677,109.7086,250.4115,0,U,66081,999,3571,.1194703E-2,.36893E-3,0
STARLINK-35011,2025-235AA,2026-06-01T04:34:37.460640,15.31712718,.00024022,53.1570,216.8543,110.1525,249.9735,0,U,66082,999,3571,.70336192E-3,.21533E-3,0
